GSAT0206 (GALILEO 10)
1 40890U 15045B   25329.32601692  .00000030  00000+0  00000+0 0  9997
2 40890  55.0088 227.2347 0003509  30.7696 329.3329  1.70473037 63567